OBJECT_NAME,OBJECT_ID,EPOCH,MEAN_MOTION,ECCENTRICITY,INCLINATION,RA_OF_ASC_NODE,ARG_OF_PERICENTER,MEAN_ANOMALY,EPHEMERIS_TYPE,CLASSIFICATION_TYPE,NORAD_CAT_ID,ELEMENT_SET_NO,REV_AT_EPOCH,BSTAR,MEAN_MOTION_DOT,MEAN_MOTION_DDOT
ONEWEB-0401,2021-132N,2026-06-08T11:31:30.670176,13.18684251,.0001708,87.9169,337.1741,84.2787,275.8540,0,U,50481,999,22046,.3916E-4,.28E-6,0
ONEWEB-0402,2021-132P,2026-06-08T12:27:22.570272,13.18685819,.000171,87.9166,337.1562,75.8302,284.3020,0,U,50482,999,22049,.18269E-3,.85E-6,0
ONEWEB-0403,2021-132Q,2026-06-08T11:14:30.781248,13.18684535,.0002002,87.9168,337.1903,90.5070,269.6291,0,U,50483,999,22044,.22007E-3,.1E-5,0
ONEWEB-0404,2021-132R,2026-06-08T02:23:24.842976,13.11415554,.00021363,87.8896,22.8759,85.1839,274.9533,0,U,50484,999,21450,-.89584247E-3,-.305E-5,0
ONEWEB-0405,2021-132S,2026-06-08T11:33:57.589056,13.18686232,.0001839,87.9171,337.1718,105.4311,254.7024,0,U,50485,999,22084,.92398E-4,.49E-6,0
ONEWEB-0406,2021-132T,2026-06-08T11:21:48.158784,13.18684543,.0002392,87.9163,337.1906,89.6053,270.5354,0,U,50486,999,22047,.12648E-3,.63E-6,0
ONEWEB-0407,2021-132U,2026-06-08T11:12:05.946336,13.18684642,.0001633,87.9166,337.1838,91.5236,268.6083,0,U,50487,999,22041,-.15556E-4,.7E-7,0
ONEWEB-0409,2021-132V,2026-06-08T04:10:50.124000,13.11415823,.0002068,87.8902,22.8488,88.0848,272.0516,0,U,50488,999,21440,-.64242E-3,-.215E-5,0
ONEWEB-0412,2021-132W,2026-06-08T10:55:05.260800,13.18684188,.0001729,87.9167,337.1948,80.9779,279.1549,0,U,50489,999,22050,.97222E-5,.17E-6,0
ONEWEB-0413,2021-132X,2026-06-08T00:06:48.297888,13.18680465,.00016117,87.9155,337.2838,84.5094,275.6222,0,U,50490,999,22038,.59089752E-4,.36E-6,0
ONEWEB-0414,2021-132Y,2026-06-08T12:29:47.527008,13.18684839,.000191,87.9169,337.1621,85.2850,274.8500,0,U,50491,999,22048,.10734E-3,.55E-6,0
ONEWEB-0417,2021-132Z,2026-06-08T10:52:40.088064,13.18684739,.0002081,87.9159,337.1958,91.6619,268.4751,0,U,50492,999,22045,.26522E-4,.23E-6,0
ONEWEB-0418,2021-132AA,2026-06-08T11:07:03.042624,13.18684752,.0002122,87.9170,337.1926,92.2865,267.8510,0,U,50493,999,22051,.13601E-3,.67E-6,0
ONEWEB-0419,2021-132AB,2026-06-08T11:33:37.895904,13.18665402,.0002042,87.9169,337.1883,97.5101,262.6264,0,U,50494,999,22043,.1081E-3,.56E-6,0
ONEWEB-0420,2021-132AC,2026-06-08T12:32:13.046208,13.18685276,.0001652,87.9161,337.1840,92.9908,267.1414,0,U,50495,999,22043,.1018E-3,.53E-6,0
ONEWEB-0421,2021-132AD,2026-06-08T12:22:29.841024,13.18684887,.0001954,87.9163,337.1825,79.7166,280.4186,0,U,50496,999,22047,.19946E-3,.92E-6,0
ONEWEB-0424,2021-132AE,2026-06-08T11:26:39.540192,13.18684618,.0001963,87.9162,337.1879,100.5634,259.5720,0,U,50497,999,22049,-.81577E-4,-.19E-6,0
ONEWEB-0426,2021-132AF,2026-06-08T12:16:26.776992,13.18688543,.0002471,87.9165,337.1720,80.9826,279.1586,0,U,50498,999,22044,.16311E-3,.77E-6,0
ONEWEB-0427,2021-132AG,2026-06-08T11:24:13.869792,13.18684355,.0002065,87.9170,337.1681,90.6212,269.5156,0,U,50499,999,22046,.34485E-4,.27E-6,0
ONEWEB-0429,2021-132AH,2026-06-08T11:04:48.632736,13.18684877,.0001722,87.9160,337.1961,90.6170,269.5160,0,U,50500,999,22043,.12149E-3,.61E-6,0
ONEWEB-0430,2021-132AJ,2026-06-08T12:37:04.533888,13.18685134,.000171,87.9164,337.1818,98.1187,262.0139,0,U,50501,999,22048,.11211E-3,.57E-6,0
ONEWEB-0432,2021-132AK,2026-06-08T09:47:05.736192,13.18182963,.0002911,87.9211,337.1837,109.2194,250.9253,0,U,50502,999,22042,-.11536E+0,-.4491E-3,0
ONEWEB-0440,2021-132AL,2026-06-08T11:16:56.609760,13.18684630,.0001655,87.9167,337.1880,80.7170,279.4149,0,U,50503,999,22042,-.15305E-4,.7E-7,0
ONEWEB-0450,2021-132AM,2026-06-08T11:07:26.636736,13.18685423,.000164,87.9157,337.1955,92.6507,267.4813,0,U,50504,999,22045,.19377E-4,.21E-6,0
ONEWEB-0410,2022-012A,2026-06-08T11:37:50.773152,13.17647965,.0003171,87.9150,7.5878,82.1914,277.9577,0,U,51622,999,21255,.11437E-3,.57E-6,0
ONEWEB-0411,2022-012B,2026-06-08T09:13:47.896896,13.10372558,.0001495,87.8849,38.0197,97.7139,262.4158,0,U,51623,999,20813,-.17156E-2,-.586E-5,0
ONEWEB-0415,2022-012C,2026-06-08T09:09:01.442016,13.10372234,.0001721,87.8844,38.0191,89.6254,270.5070,0,U,51624,999,20813,-.1651E-2,-.564E-5,0
ONEWEB-0416,2022-012D,2026-06-08T09:25:46.339680,13.10377098,.0001946,87.8846,38.0356,94.5236,265.6113,0,U,51625,999,20817,-.21614E-2,-.742E-5,0
ONEWEB-0422,2022-012E,2026-06-08T11:52:26.125248,13.17648417,.0001291,87.9148,7.5869,74.0269,286.1005,0,U,51626,999,21266,.15361E-3,.73E-6,0
ONEWEB-0423,2022-012F,2026-06-08T11:42:43.621632,13.17649171,.0001922,87.9141,7.5944,83.5976,276.5374,0,U,51627,999,21255,.12522E-3,.61E-6,0
ONEWEB-0425,2022-012G,2026-06-08T09:40:07.973184,13.10376705,.000213,87.8845,38.0167,78.7733,281.3634,0,U,51628,999,20817,-.52714E-4,-.6E-7,0
