ONEWEB-0401             
1 50481U 21132N   26159.48021609  .00000028  00000+0  39160-4 0  9992
2 50481  87.9169 337.1741 0001708  84.2787 275.8540 13.18684251220462
ONEWEB-0402             
1 50482U 21132P   26159.51901123  .00000085  00000+0  18269-3 0  9994
2 50482  87.9166 337.1562 0001710  75.8302 284.3020 13.18685819220495
ONEWEB-0403             
1 50483U 21132Q   26159.46841182  .00000100  00000+0  22007-3 0  9990
2 50483  87.9168 337.1903 0002002  90.5070 269.6291 13.18684535220443
ONEWEB-0404             
1 50484U 21132R   26159.09959309 -.00000305  00000+0 -89584-3 0  9993
2 50484  87.8896  22.8759 0002136  85.1839 274.9533 13.11415554214503
ONEWEB-0405             
1 50485U 21132S   26159.48191654  .00000049  00000+0  92398-4 0  9999
2 50485  87.9171 337.1718 0001839 105.4311 254.7024 13.18686232220843
ONEWEB-0406             
1 50486U 21132T   26159.47347406  .00000063  00000+0  12648-3 0  9992
2 50486  87.9163 337.1906 0002392  89.6053 270.5354 13.18684543220479
ONEWEB-0407             
1 50487U 21132U   26159.46673549  .00000007  00000+0 -15556-4 0  9993
2 50487  87.9166 337.1838 0001633  91.5236 268.6083 13.18684642220410
ONEWEB-0409             
1 50488U 21132V   26159.17419125 -.00000215  00000+0 -64242-3 0  9997
2 50488  87.8902  22.8488 0002068  88.0848 272.0516 13.11415823214408
ONEWEB-0412             
1 50489U 21132W   26159.45492200  .00000017  00000+0  97222-5 0  9998
2 50489  87.9167 337.1948 0001729  80.9779 279.1549 13.18684188220504
ONEWEB-0413             
1 50490U 21132X   26159.00472567  .00000036  00000+0  59090-4 0  9996
2 50490  87.9155 337.2838 0001611  84.5094 275.6222 13.18680465220381
ONEWEB-0414             
1 50491U 21132Y   26159.52068897  .00000055  00000+0  10734-3 0  9993
2 50491  87.9169 337.1621 0001910  85.2850 274.8500 13.18684839220486
ONEWEB-0417             
1 50492U 21132Z   26159.45324176  .00000023  00000+0  26522-4 0  9999
2 50492  87.9159 337.1958 0002081  91.6619 268.4751 13.18684739220456
ONEWEB-0418             
1 50493U 21132AA  26159.46322966  .00000067  00000+0  13601-3 0  9997
2 50493  87.9170 337.1926 0002122  92.2865 267.8510 13.18684752220519
ONEWEB-0419             
1 50494U 21132AB  26159.48168861  .00000056  00000+0  10810-3 0  9999
2 50494  87.9169 337.1883 0002042  97.5101 262.6264 13.18665402220433
ONEWEB-0420             
1 50495U 21132AC  26159.52237322  .00000053  00000+0  10180-3 0  9991
2 50495  87.9161 337.1840 0001652  92.9908 267.1414 13.18685276220437
ONEWEB-0421             
1 50496U 21132AD  26159.51562316  .00000092  00000+0  19946-3 0  9997
2 50496  87.9163 337.1825 0001954  79.7166 280.4186 13.18684887220472
ONEWEB-0424             
1 50497U 21132AE  26159.47684653 -.00000019  00000+0 -81577-4 0  9993
2 50497  87.9162 337.1879 0001963 100.5634 259.5720 13.18684618220499
ONEWEB-0426             
1 50498U 21132AF  26159.51142103  .00000077  00000+0  16311-3 0  9993
2 50498  87.9165 337.1720 0002471  80.9826 279.1586 13.18688543220441
ONEWEB-0427             
1 50499U 21132AG  26159.47516053  .00000027  00000+0  34485-4 0  9996
2 50499  87.9170 337.1681 0002065  90.6212 269.5156 13.18684355220465
ONEWEB-0429             
1 50500U 21132AH  26159.46167399  .00000061  00000+0  12149-3 0  9993
2 50500  87.9160 337.1961 0001722  90.6170 269.5160 13.18684877220431
ONEWEB-0430             
1 50501U 21132AJ  26159.52574692  .00000057  00000+0  11211-3 0  9993
2 50501  87.9164 337.1818 0001710  98.1187 262.0139 13.18685134220481
ONEWEB-0432             
1 50502U 21132AK  26159.40770528 -.00044910  00000+0 -11536+0 0  9991
2 50502  87.9211 337.1837 0002911 109.2194 250.9253 13.18182963220421
ONEWEB-0440             
1 50503U 21132AL  26159.47009965  .00000007  00000+0 -15305-4 0  9990
2 50503  87.9167 337.1880 0001655  80.7170 279.4149 13.18684630220429
ONEWEB-0450             
1 50504U 21132AM  26159.46350274  .00000021  00000+0  19377-4 0  9990
2 50504  87.9157 337.1955 0001640  92.6507 267.4813 13.18685423220451
ONEWEB-0410             
1 51622U 22012A   26159.48461543  .00000057  00000+0  11437-3 0  9991
2 51622  87.9150   7.5878 0003171  82.1914 277.9577 13.17647965212558
ONEWEB-0411             
1 51623U 22012B   26159.38458214 -.00000586  00000+0 -17156-2 0  9994
2 51623  87.8849  38.0197 0001495  97.7139 262.4158 13.10372558208133
ONEWEB-0415             
1 51624U 22012C   26159.38126669 -.00000564  00000+0 -16510-2 0  9990
2 51624  87.8844  38.0191 0001721  89.6254 270.5070 13.10372234208137
ONEWEB-0416             
1 51625U 22012D   26159.39289745 -.00000742  00000+0 -21614-2 0  9996
2 51625  87.8846  38.0356 0001946  94.5236 265.6113 13.10377098208177
ONEWEB-0422             
1 51626U 22012E   26159.49474682  .00000073  00000+0  15361-3 0  9992
2 51626  87.9148   7.5869 0001291  74.0269 286.1005 13.17648417212666
ONEWEB-0423             
1 51627U 22012F   26159.48800488  .00000061  00000+0  12522-3 0  9992
2 51627  87.9141   7.5944 0001922  83.5976 276.5374 13.17649171212553
ONEWEB-0425             
1 51628U 22012G   26159.40287006 -.00000006  00000+0 -52714-4 0  9999
2 51628  87.8845  38.0167 0002130  78.7733 281.3634 13.10376705208178
